CCSDS_OMM_VERS = 2.0
CREATION_DATE  = 
ORIGINATOR     = 

OBJECT_NAME    = 2026-023D
OBJECT_ID      = 2026-023D
CENTER_NAME    = EARTH
REF_FRAME      = TEME
TIME_SYSTEM    = UTC
MEAN_ELEMENT_THEORY = SGP/SGP4

EPOCH          = 2026-02-15T23:15:00.533088
MEAN_MOTION    = 15.22375795
ECCENTRICITY   = .00190296
INCLINATION    = 96.6471
RA_OF_ASC_NODE = 122.4323
ARG_OF_PERICENTER = 202.9072
MEAN_ANOMALY   = 157.1320

EPHEMERIS_TYPE = 0
CLASSIFICATION_TYPE = U
NORAD_CAT_ID   = 67677
ELEMENT_SET_NO = 999
REV_AT_EPOCH   = 154
BSTAR          = .54126531E-3
MEAN_MOTION_DOT = .12507E-3
MEAN_MOTION_DDOT = 0

CCSDS_OMM_VERS = 2.0
CREATION_DATE  = 
ORIGINATOR     = 

OBJECT_NAME    = 2026-023E
OBJECT_ID      = 2026-023E
CENTER_NAME    = EARTH
REF_FRAME      = TEME
TIME_SYSTEM    = UTC
MEAN_ELEMENT_THEORY = SGP/SGP4

EPOCH          = 2026-02-15T23:14:11.672160
MEAN_MOTION    = 15.22481759
ECCENTRICITY   = .00188742
INCLINATION    = 96.6365
RA_OF_ASC_NODE = 122.4349
ARG_OF_PERICENTER = 202.2686
MEAN_ANOMALY   = 157.7735

EPHEMERIS_TYPE = 0
CLASSIFICATION_TYPE = U
NORAD_CAT_ID   = 67678
ELEMENT_SET_NO = 999
REV_AT_EPOCH   = 154
BSTAR          = .63129714E-3
MEAN_MOTION_DOT = .14646E-3
MEAN_MOTION_DDOT = 0

CCSDS_OMM_VERS = 2.0
CREATION_DATE  = 
ORIGINATOR     = 

OBJECT_NAME    = 2026-023F
OBJECT_ID      = 2026-023F
CENTER_NAME    = EARTH
REF_FRAME      = TEME
TIME_SYSTEM    = UTC
MEAN_ELEMENT_THEORY = SGP/SGP4

EPOCH          = 2026-02-15T23:12:50.618592
MEAN_MOTION    = 15.22607001
ECCENTRICITY   = .00208169
INCLINATION    = 96.6372
RA_OF_ASC_NODE = 124.9316
ARG_OF_PERICENTER = 197.0055
MEAN_ANOMALY   = 163.0489

EPHEMERIS_TYPE = 0
CLASSIFICATION_TYPE = U
NORAD_CAT_ID   = 67679
ELEMENT_SET_NO = 999
REV_AT_EPOCH   = 153
BSTAR          = .56012735E-3
MEAN_MOTION_DOT = .13048E-3
MEAN_MOTION_DDOT = 0

CCSDS_OMM_VERS = 2.0
CREATION_DATE  = 
ORIGINATOR     = 

OBJECT_NAME    = 2026-023G
OBJECT_ID      = 2026-023G
CENTER_NAME    = EARTH
REF_FRAME      = TEME
TIME_SYSTEM    = UTC
MEAN_ELEMENT_THEORY = SGP/SGP4

EPOCH          = 2026-02-15T23:13:11.792640
MEAN_MOTION    = 15.22580414
ECCENTRICITY   = .00224289
INCLINATION    = 96.6299
RA_OF_ASC_NODE = 124.9300
ARG_OF_PERICENTER = 193.4491
MEAN_ANOMALY   = 166.6153

EPHEMERIS_TYPE = 0
CLASSIFICATION_TYPE = U
NORAD_CAT_ID   = 67680
ELEMENT_SET_NO = 999
REV_AT_EPOCH   = 153
BSTAR          = .65684845E-3
MEAN_MOTION_DOT = .15318E-3
MEAN_MOTION_DDOT = 0

CCSDS_OMM_VERS = 2.0
CREATION_DATE  = 
ORIGINATOR     = 

OBJECT_NAME    = 2026-023H
OBJECT_ID      = 2026-023H
CENTER_NAME    = EARTH
REF_FRAME      = TEME
TIME_SYSTEM    = UTC
MEAN_ELEMENT_THEORY = SGP/SGP4

EPOCH          = 2026-02-15T20:03:38.575296
MEAN_MOTION    = 15.22579253
ECCENTRICITY   = .00224568
INCLINATION    = 96.6442
RA_OF_ASC_NODE = 124.8124
ARG_OF_PERICENTER = 193.4246
MEAN_ANOMALY   = 166.6398

EPHEMERIS_TYPE = 0
CLASSIFICATION_TYPE = U
NORAD_CAT_ID   = 67681
ELEMENT_SET_NO = 999
REV_AT_EPOCH   = 151
BSTAR          = .46915218E-4
MEAN_MOTION_DOT = .1038E-4
MEAN_MOTION_DDOT = 0

CCSDS_OMM_VERS = 2.0
CREATION_DATE  = 
ORIGINATOR     = 

OBJECT_NAME    = 2026-023J
OBJECT_ID      = 2026-023J
CENTER_NAME    = EARTH
REF_FRAME      = TEME
TIME_SYSTEM    = UTC
MEAN_ELEMENT_THEORY = SGP/SGP4

EPOCH          = 2026-02-15T23:12:34.721856
MEAN_MOTION    = 15.22645697
ECCENTRICITY   = .00226046
INCLINATION    = 96.6401
RA_OF_ASC_NODE = 124.9429
ARG_OF_PERICENTER = 189.6328
MEAN_ANOMALY   = 170.4480

EPHEMERIS_TYPE = 0
CLASSIFICATION_TYPE = U
NORAD_CAT_ID   = 67682
ELEMENT_SET_NO = 999
REV_AT_EPOCH   = 153
BSTAR          = .58550842E-3
MEAN_MOTION_DOT = .13673E-3
MEAN_MOTION_DDOT = 0

CCSDS_OMM_VERS = 2.0
CREATION_DATE  = 
ORIGINATOR     = 

OBJECT_NAME    = ISS OBJECT XZ
OBJECT_ID      = 1998-067XZ
CENTER_NAME    = EARTH
REF_FRAME      = TEME
TIME_SYSTEM    = UTC
MEAN_ELEMENT_THEORY = SGP/SGP4

EPOCH          = 2026-02-15T13:28:26.590368
MEAN_MOTION    = 15.50024026
ECCENTRICITY   = .0010523
INCLINATION    = 51.6309
RA_OF_ASC_NODE = 181.6425
ARG_OF_PERICENTER = 114.1379
MEAN_ANOMALY   = 246.0711

EPHEMERIS_TYPE = 0
CLASSIFICATION_TYPE = U
NORAD_CAT_ID   = 67683
ELEMENT_SET_NO = 999
REV_AT_EPOCH   = 135
BSTAR          = .73306E-3
MEAN_MOTION_DOT = .41718E-3
MEAN_MOTION_DDOT = 0

CCSDS_OMM_VERS = 2.0
CREATION_DATE  = 
ORIGINATOR     = 

OBJECT_NAME    = GXIBA-1
OBJECT_ID      = 1998-067YA
CENTER_NAME    = EARTH
REF_FRAME      = TEME
TIME_SYSTEM    = UTC
MEAN_ELEMENT_THEORY = SGP/SGP4

EPOCH          = 2026-02-15T14:55:30.449280
MEAN_MOTION    = 15.50928895
ECCENTRICITY   = .00121942
INCLINATION    = 51.6308
RA_OF_ASC_NODE = 181.2974
ARG_OF_PERICENTER = 107.9259
MEAN_ANOMALY   = 252.3061

EPHEMERIS_TYPE = 0
CLASSIFICATION_TYPE = U
NORAD_CAT_ID   = 67684
ELEMENT_SET_NO = 999
REV_AT_EPOCH   = 136
BSTAR          = .13427394E-2
MEAN_MOTION_DOT = .7976E-3
MEAN_MOTION_DDOT = 0

CCSDS_OMM_VERS = 2.0
CREATION_DATE  = 
ORIGINATOR     = 

OBJECT_NAME    = CORAL
OBJECT_ID      = 1998-067YB
CENTER_NAME    = EARTH
REF_FRAME      = TEME
TIME_SYSTEM    = UTC
MEAN_ELEMENT_THEORY = SGP/SGP4

EPOCH          = 2026-02-15T21:11:27.618720
MEAN_MOTION    = 15.50209257
ECCENTRICITY   = .00124237
INCLINATION    = 51.6310
RA_OF_ASC_NODE = 180.0402
ARG_OF_PERICENTER = 110.6122
MEAN_ANOMALY   = 249.6200

EPHEMERIS_TYPE = 0
CLASSIFICATION_TYPE = U
NORAD_CAT_ID   = 67685
ELEMENT_SET_NO = 999
REV_AT_EPOCH   = 140
BSTAR          = .79589473E-3
MEAN_MOTION_DOT = .45696E-3
MEAN_MOTION_DDOT = 0

CCSDS_OMM_VERS = 2.0
CREATION_DATE  = 
ORIGINATOR     = 

OBJECT_NAME    = ISS OBJECT YC
OBJECT_ID      = 1998-067YC
CENTER_NAME    = EARTH
REF_FRAME      = TEME
TIME_SYSTEM    = UTC
MEAN_ELEMENT_THEORY = SGP/SGP4

EPOCH          = 2026-02-15T14:59:07.361664
MEAN_MOTION    = 15.50363594
ECCENTRICITY   = .00077844
INCLINATION    = 51.6313
RA_OF_ASC_NODE = 181.3144
ARG_OF_PERICENTER = 83.9210
MEAN_ANOMALY   = 276.2666

EPHEMERIS_TYPE = 0
CLASSIFICATION_TYPE = U
NORAD_CAT_ID   = 67686
ELEMENT_SET_NO = 999
REV_AT_EPOCH   = 136
BSTAR          = .97002169E-3
MEAN_MOTION_DOT = .56075E-3
MEAN_MOTION_DDOT = 0

CCSDS_OMM_VERS = 2.0
CREATION_DATE  = 
ORIGINATOR     = 

OBJECT_NAME    = LEOPARD
OBJECT_ID      = 1998-067YD
CENTER_NAME    = EARTH
REF_FRAME      = TEME
TIME_SYSTEM    = UTC
MEAN_ELEMENT_THEORY = SGP/SGP4

EPOCH          = 2026-02-15T13:27:46.626912
MEAN_MOTION    = 15.50114031
ECCENTRICITY   = .0007861
INCLINATION    = 51.6313
RA_OF_ASC_NODE = 181.6402
ARG_OF_PERICENTER = 86.0816
MEAN_ANOMALY   = 274.1071

EPHEMERIS_TYPE = 0
CLASSIFICATION_TYPE = U
NORAD_CAT_ID   = 67687
ELEMENT_SET_NO = 999
REV_AT_EPOCH   = 127
BSTAR          = .7788E-3
MEAN_MOTION_DOT = .44466E-3
MEAN_MOTION_DDOT = 0

CCSDS_OMM_VERS = 2.0
CREATION_DATE  = 
ORIGINATOR     = 

OBJECT_NAME    = ISS OBJECT YE
OBJECT_ID      = 1998-067YE
CENTER_NAME    = EARTH
REF_FRAME      = TEME
TIME_SYSTEM    = UTC
MEAN_ELEMENT_THEORY = SGP/SGP4

EPOCH          = 2026-02-15T14:59:29.505984
MEAN_MOTION    = 15.50286221
ECCENTRICITY   = .00077586
INCLINATION    = 51.6316
RA_OF_ASC_NODE = 181.3167
ARG_OF_PERICENTER = 84.5010
MEAN_ANOMALY   = 275.6864

EPHEMERIS_TYPE = 0
CLASSIFICATION_TYPE = U
NORAD_CAT_ID   = 67688
ELEMENT_SET_NO = 999
REV_AT_EPOCH   = 128
BSTAR          = .90931562E-3
MEAN_MOTION_DOT = .52367E-3
MEAN_MOTION_DDOT = 0

